{
  "type": "FeatureCollection",
  "features": [
    {
      "type": "Feature",
      "properties": {
        "spill_id": "WAKASHIO_SLICK_001",
        "scene_id": "S1A_IW_GRDH_20200806T144512",
        "area_km2": 5.28,
        "perimeter_km": 11.4,
        "centroid_lat": -20.428,
        "centroid_lon": 57.735,
        "major_axis_len_km": 4.8,
        "minor_axis_len_km": 1.4,
        "orientation_deg": 315.0,
        "elongation": 3.43,
        "confidence": 0.98,
        "quality_flag": "HIGH"
      },
      "geometry": {
        "type": "Polygon",
        "coordinates": [
          [
            [
              57.751315,
              -20.443289
            ],
            [
              57.75193,
              -20.442125
            ],
            [
              57.751894,
              -20.440419
            ],
            [
              57.751209,
              -20.438235
            ],
            [
              57.749901,
              -20.435658
            ],
            [
              57.748021,
              -20.432786
            ],
            [
              57.74564,
              -20.429731
            ],
            [
              57.74285,
              -20.426609
            ],
            [
              57.739758,
              -20.423541
            ],
            [
              57.736484,
              -20.420644
            ],
            [
              57.733153,
              -20.418029
            ],
            [
              57.729893,
              -20.415798
            ],
            [
              57.726828,
              -20.414036
            ],
            [
              57.724078,
              -20.41281
            ],
            [
              57.721748,
              -20.412169
            ],
            [
              57.719927,
              -20.412135
            ],
            [
              57.718685,
              -20.412711
            ],
            [
              57.71807,
              -20.413875
            ],
            [
              57.718106,
              -20.415581
            ],
            [
              57.718791,
              -20.417765
            ],
            [
              57.720099,
              -20.420342
            ],
            [
              57.721979,
              -20.423214
            ],
            [
              57.72436,
              -20.426269
            ],
            [
              57.72715,
              -20.429391
            ],
            [
              57.730242,
              -20.432459
            ],
            [
              57.733516,
              -20.435356
            ],
            [
              57.736847,
              -20.437971
            ],
            [
              57.740107,
              -20.440202
            ],
            [
              57.743172,
              -20.441964
            ],
            [
              57.745922,
              -20.44319
            ],
            [
              57.748252,
              -20.443831
            ],
            [
              57.750073,
              -20.443865
            ],
            [
              57.751315,
              -20.443289
            ]
          ]
        ]
      }
    }
  ]
}