{
  "type": "FeatureCollection",
  "features": [
    {
      "type": "Feature",
      "properties": {
        "spill_id": "SYNTH_SPILL_001",
        "scene_id": "SYNTH_S1A_20240510_1600",
        "area_km2": 3.63,
        "perimeter_km": 9.05,
        "centroid": {
          "latitude": 15.452267,
          "longitude": 72.276114
        },
        "major_axis_len_km": 4.2,
        "minor_axis_len_km": 1.1,
        "orientation_deg": 326.9,
        "elongation": 3.82,
        "confidence": 0.94,
        "true_origin": {
          "latitude": 15.5,
          "longitude": 72.2,
          "release_time": "2024-05-10T10:00:00+00:00"
        },
        "provenance": "SYNTHETIC_ANALYTICAL_GROUND_TRUTH"
      },
      "geometry": {
        "type": "Polygon",
        "coordinates": [
          [
            [
              72.292521,
              15.441978
            ],
            [
              72.292758,
              15.442853
            ],
            [
              72.292488,
              15.444014
            ],
            [
              72.291721,
              15.445427
            ],
            [
              72.29048,
              15.447047
            ],
            [
              72.288803,
              15.448825
            ],
            [
              72.286739,
              15.450709
            ],
            [
              72.284353,
              15.452639
            ],
            [
              72.281717,
              15.454559
            ],
            [
              72.27891,
              15.456408
            ],
            [
              72.276018,
              15.458132
            ],
            [
              72.27313,
              15.459678
            ],
            [
              72.270332,
              15.460998
            ],
            [
              72.267709,
              15.462054
            ],
            [
              72.265342,
              15.462812
            ],
            [
              72.263302,
              15.463249
            ],
            [
              72.261652,
              15.463353
            ],
            [
              72.260441,
              15.46312
            ],
            [
              72.259706,
              15.462557
            ],
            [
              72.259469,
              15.461682
            ],
            [
              72.259739,
              15.46052
            ],
            [
              72.260506,
              15.459108
            ],
            [
              72.261747,
              15.457488
            ],
            [
              72.263424,
              15.455709
            ],
            [
              72.265488,
              15.453826
            ],
            [
              72.267874,
              15.451895
            ],
            [
              72.27051,
              15.449976
            ],
            [
              72.273317,
              15.448126
            ],
            [
              72.276209,
              15.446402
            ],
            [
              72.279097,
              15.444857
            ],
            [
              72.281895,
              15.443536
            ],
            [
              72.284518,
              15.442481
            ],
            [
              72.286885,
              15.441723
            ],
            [
              72.288925,
              15.441286
            ],
            [
              72.290575,
              15.441182
            ],
            [
              72.291786,
              15.441415
            ],
            [
              72.292521,
              15.441978
            ]
          ]
        ]
      }
    }
  ]
}