{
  "type": "FeatureCollection",
  "features": [
    {
      "type": "Feature",
      "geometry": {
        "type": "Polygon",
        "coordinates": [
          [
            [
              -118.064889,
              33.631563
            ],
            [
              -118.065402,
              33.630499
            ],
            [
              -118.065131,
              33.628839
            ],
            [
              -118.064087,
              33.626648
            ],
            [
              -118.062309,
              33.624009
            ],
            [
              -118.059866,
              33.621024
            ],
            [
              -118.056851,
              33.617807
            ],
            [
              -118.053382,
              33.614482
            ],
            [
              -118.04959,
              33.611178
            ],
            [
              -118.045621,
              33.60802
            ],
            [
              -118.041629,
              33.60513
            ],
            [
              -118.037767,
              33.60262
            ],
            [
              -118.034182,
              33.600586
            ],
            [
              -118.031013,
              33.599105
            ],
            [
              -118.028382,
              33.598235
            ],
            [
              -118.026389,
              33.59801
            ],
            [
              -118.025111,
              33.598437
            ],
            [
              -118.024598,
              33.599501
            ],
            [
              -118.024869,
              33.601161
            ],
            [
              -118.025913,
              33.603352
            ],
            [
              -118.027691,
              33.605991
            ],
            [
              -118.030134,
              33.608976
            ],
            [
              -118.033149,
              33.612193
            ],
            [
              -118.036618,
              33.615518
            ],
            [
              -118.04041,
              33.618822
            ],
            [
              -118.044379,
              33.62198
            ],
            [
              -118.048371,
              33.62487
            ],
            [
              -118.052233,
              33.62738
            ],
            [
              -118.055818,
              33.629414
            ],
            [
              -118.058987,
              33.630895
            ],
            [
              -118.061618,
              33.631765
            ],
            [
              -118.063611,
              33.63199
            ],
            [
              -118.064889,
              33.631563
            ]
          ]
        ]
      },
      "properties": {
        "spill_id": "HUNTINGTON_PIPELINE_SLICK_001",
        "scene_id": "S1A_IW_GRDH_20211002T135022",
        "acquisition_time": "2021-10-02T13:50:22Z",
        "confidence": 0.96,
        "sensor": "Sentinel-1 SAR C-Band"
      }
    }
  ]
}