{
  "type": "FeatureCollection",
  "features": [
    {
      "type": "Feature",
      "geometry": {
        "type": "Polygon",
        "coordinates": [
          [
            [
              80.373875,
              13.273567
            ],
            [
              80.373092,
              13.274278
            ],
            [
              80.371615,
              13.274633
            ],
            [
              80.369498,
              13.274618
            ],
            [
              80.366825,
              13.274233
            ],
            [
              80.363697,
              13.273493
            ],
            [
              80.360235,
              13.272427
            ],
            [
              80.356572,
              13.271076
            ],
            [
              80.352849,
              13.269491
            ],
            [
              80.349208,
              13.267733
            ],
            [
              80.345789,
              13.265871
            ],
            [
              80.342725,
              13.263975
            ],
            [
              80.340132,
              13.262118
            ],
            [
              80.338111,
              13.260372
            ],
            [
              80.336739,
              13.258804
            ],
            [
              80.336068,
              13.257474
            ],
            [
              80.336125,
              13.256433
            ],
            [
              80.336908,
              13.255722
            ],
            [
              80.338385,
              13.255367
            ],
            [
              80.340502,
              13.255382
            ],
            [
              80.343175,
              13.255767
            ],
            [
              80.346303,
              13.256507
            ],
            [
              80.349765,
              13.257573
            ],
            [
              80.353428,
              13.258924
            ],
            [
              80.357151,
              13.260509
            ],
            [
              80.360792,
              13.262267
            ],
            [
              80.364211,
              13.264129
            ],
            [
              80.367275,
              13.266025
            ],
            [
              80.369868,
              13.267882
            ],
            [
              80.371889,
              13.269628
            ],
            [
              80.373261,
              13.271196
            ],
            [
              80.373932,
              13.272526
            ],
            [
              80.373875,
              13.273567
            ]
          ]
        ]
      },
      "properties": {
        "spill_id": "ENNORE_COLLISION_SLICK_001",
        "scene_id": "S1A_IW_GRDH_20170128T061530",
        "acquisition_time": "2017-01-28T06:15:30Z",
        "confidence": 0.97,
        "sensor": "Sentinel-1 SAR C-Band"
      }
    }
  ]
}