{
  "type": "FeatureCollection",
  "features": [
    {
      "type": "Feature",
      "properties": {
        "spill_id": "NEW_DIAMOND_SLICK_001",
        "scene_id": "S1B_IW_GRDH_20200904T121545",
        "area_km2": 7.92,
        "perimeter_km": 14.2,
        "centroid_lat": 7.125,
        "centroid_lon": 82.42,
        "major_axis_len_km": 5.6,
        "minor_axis_len_km": 1.8,
        "orientation_deg": 75.0,
        "elongation": 3.11,
        "confidence": 0.95,
        "quality_flag": "HIGH"
      },
      "geometry": {
        "type": "Polygon",
        "coordinates": [
          [
            [
              82.42658,
              7.149366
            ],
            [
              82.424913,
              7.149307
            ],
            [
              82.423058,
              7.148314
            ],
            [
              82.421086,
              7.146425
            ],
            [
              82.419071,
              7.143713
            ],
            [
              82.417093,
              7.140282
            ],
            [
              82.415226,
              7.136263
            ],
            [
              82.413542,
              7.131812
            ],
            [
              82.412107,
              7.127099
            ],
            [
              82.410975,
              7.122305
            ],
            [
              82.41019,
              7.117614
            ],
            [
              82.409782,
              7.113208
            ],
            [
              82.409766,
              7.109255
            ],
            [
              82.410144,
              7.105907
            ],
            [
              82.410901,
              7.103292
            ],
            [
              82.412007,
              7.101512
            ],
            [
              82.41342,
              7.100634
            ],
            [
              82.415087,
              7.100693
            ],
            [
              82.416942,
              7.101686
            ],
            [
              82.418914,
              7.103575
            ],
            [
              82.420929,
              7.106287
            ],
            [
              82.422907,
              7.109718
            ],
            [
              82.424774,
              7.113737
            ],
            [
              82.426458,
              7.118188
            ],
            [
              82.427893,
              7.122901
            ],
            [
              82.429025,
              7.127695
            ],
            [
              82.42981,
              7.132386
            ],
            [
              82.430218,
              7.136792
            ],
            [
              82.430234,
              7.140745
            ],
            [
              82.429856,
              7.144093
            ],
            [
              82.429099,
              7.146708
            ],
            [
              82.427993,
              7.148488
            ],
            [
              82.42658,
              7.149366
            ]
          ]
        ]
      }
    }
  ]
}